start=new Date('2023-01-01T00:00:00.000Z').valueOf();
sats=[{"ECCENTRICITY":"0.00014780","REF_FRAME":"TEME","NORAD_CAT_ID":"46760","OBJECT_NAME":"STARLINK-1896","DECAY_DATE":null,"REV_AT_EPOCH":"12102","TLE_LINE2":"2 46760  53.0531 162.0973 0001478  72.6708 287.4443 15.06399031121025","APOAPSIS":"548.240","SITE":"AFETR","MEAN_MOTION_DOT":"0.00001731","MEAN_MOTION_DDOT":"0.0000000000000","COUNTRY_CODE":"US","ARG_OF_PERICENTER":"72.6708","PERIOD":"95.592","RCS_SIZE":"LARGE","BSTAR":"0.00013509000000","ELEMENT_SET_NO":"999","RA_OF_ASC_NODE":"162.0973","OBJECT_ID":"2020-074X","MEAN_MOTION":"15.06399031","GP_ID":"221888108","INCLINATION":"53.0531","MEAN_ELEMENT_THEORY":"SGP4","FILE":"3728081","CLASSIFICATION_TYPE":"U","EPHEMERIS_TYPE":"0","TLE_LINE1":"1 46760U 20074X   22365.67517911  .00001731  00000-0  13509-3 0  9994","PERIAPSIS":"546.193","LAUNCH_DATE":"2020-10-24","CENTER_NAME":"EARTH","OBJECT_TYPE":"PAYLOAD","TIME_SYSTEM":"UTC","MEAN_ANOMALY":"287.4443","EPOCH":"2022-12-31T16:12:15.475104","SEMIMAJOR_AXIS":"6925.352"},{"EPHEMERIS_TYPE":"0","CLASSIFICATION_TYPE":"U","MEAN_ELEMENT_THEORY":"SGP4","FILE":"3728081","INCLINATION":"53.0415","GP_ID":"221887848","SEMIMAJOR_AXIS":"6717.785","EPOCH":"2022-12-31T14:42:50.329728","MEAN_ANOMALY":"67.9463","TIME_SYSTEM":"UTC","OBJECT_TYPE":"PAYLOAD","CENTER_NAME":"EARTH","LAUNCH_DATE":"2020-10-24","PERIAPSIS":"334.365","TLE_LINE1":"1 46763U 20074AA  22365.61308252  .00019694  00000-0  12373-3 0  9992","MEAN_MOTION_DOT":"0.00019694","TLE_LINE2":"2 46763  53.0415  47.9103 0007867 292.0720  67.9463 15.76752772122627","SITE":"AFETR","APOAPSIS":"344.935","REV_AT_EPOCH":"12262","DECAY_DATE":null,"OBJECT_NAME":"STARLINK-1902","NORAD_CAT_ID":"46763","REF_FRAME":"TEME","ECCENTRICITY":"0.00078670","OBJECT_ID":"2020-074AA","MEAN_MOTION":"15.76752772","RA_OF_ASC_NODE":"47.9103","ELEMENT_SET_NO":"999","BSTAR":"0.00012373000000","RCS_SIZE":"LARGE","PERIOD":"91.327","COUNTRY_CODE":"US","ARG_OF_PERICENTER":"292.0720","MEAN_MOTION_DDOT":"0.0000000000000"},{"ECCENTRICITY":"0.00010110","REF_FRAME":"TEME","OBJECT_NAME":"STARLINK-1903","NORAD_CAT_ID":"46764","REV_AT_EPOCH":"12103","DECAY_DATE":null,"APOAPSIS":"547.993","TLE_LINE2":"2 46764  53.0526 161.8278 0001011  88.5442 271.5663 15.06374257121034","SITE":"AFETR","MEAN_MOTION_DOT":"0.00010035","COUNTRY_CODE":"US","ARG_OF_PERICENTER":"88.5442","MEAN_MOTION_DDOT":"0.0000000000000","PERIOD":"95.594","RCS_SIZE":"LARGE","BSTAR":"0.00069210000000","RA_OF_ASC_NODE":"161.8278","ELEMENT_SET_NO":"999","MEAN_MOTION":"15.06374257","OBJECT_ID":"2020-074AB","GP_ID":"221886608","INCLINATION":"53.0526","FILE":"3728081","MEAN_ELEMENT_THEORY":"SGP4","CLASSIFICATION_TYPE":"U","EPHEMERIS_TYPE":"0","LAUNCH_DATE":"2020-10-24","TLE_LINE1":"1 46764U 20074AB  22365.73415905  .00010035  00000-0  69210-3 0  9992","PERIAPSIS":"546.592","CENTER_NAME":"EARTH","OBJECT_TYPE":"PAYLOAD","TIME_SYSTEM":"UTC","MEAN_ANOMALY":"271.5663","SEMIMAJOR_AXIS":"6925.427","EPOCH":"2022-12-31T17:37:11.341920"},{"APOAPSIS":"548.040","TLE_LINE2":"2 46765  53.0545 161.5573 0001217  71.2218 288.8902 15.06405252121036","SITE":"AFETR","MEAN_MOTION_DOT":"0.00000202","ECCENTRICITY":"0.00012170","REF_FRAME":"TEME","NORAD_CAT_ID":"46765","OBJECT_NAME":"STARLINK-1906","DECAY_DATE":null,"REV_AT_EPOCH":"12103","BSTAR":"0.00003247400000","ELEMENT_SET_NO":"999","RA_OF_ASC_NODE":"161.5573","MEAN_MOTION":"15.06405252","OBJECT_ID":"2020-074AC","MEAN_MOTION_DDOT":"0.0000000000000","ARG_OF_PERICENTER":"71.2218","COUNTRY_CODE":"US","PERIOD":"95.592","RCS_SIZE":"LARGE","CLASSIFICATION_TYPE":"U","EPHEMERIS_TYPE":"0","GP_ID":"221886858","INCLINATION":"53.0545","FILE":"3728081","MEAN_ELEMENT_THEORY":"SGP4","TIME_SYSTEM":"UTC","MEAN_ANOMALY":"288.8902","SEMIMAJOR_AXIS":"6925.332","EPOCH":"2022-12-31T18:56:46.953312","TLE_LINE1":"1 46765U 20074AC  22365.78943233  .00000202  00000-0  32474-4 0  9996","PERIAPSIS":"546.355","LAUNCH_DATE":"2020-10-24","CENTER_NAME":"EARTH","OBJECT_TYPE":"PAYLOAD"},{"TIME_SYSTEM":"UTC","SEMIMAJOR_AXIS":"6925.327","EPOCH":"2022-12-31T17:10:37.286976","MEAN_ANOMALY":"268.7381","CENTER_NAME":"EARTH","LAUNCH_DATE":"2020-10-24","TLE_LINE1":"1 46766U 20074AD  22365.71570934  .00001537  00000-0  12202-3 0  9992","PERIAPSIS":"546.376","OBJECT_TYPE":"PAYLOAD","CLASSIFICATION_TYPE":"U","EPHEMERIS_TYPE":"0","GP_ID":"221887609","FILE":"3728081","MEAN_ELEMENT_THEORY":"SGP4","INCLINATION":"53.0517","BSTAR":"0.00012202000000","MEAN_MOTION":"15.06407195","OBJECT_ID":"2020-074AD","RA_OF_ASC_NODE":"161.9097","ELEMENT_SET_NO":"999","COUNTRY_CODE":"US","ARG_OF_PERICENTER":"91.3743","MEAN_MOTION_DDOT":"0.0000000000000","RCS_SIZE":"LARGE","PERIOD":"95.592","SITE":"AFETR","TLE_LINE2":"2 46766  53.0517 161.9097 0001178  91.3743 268.7381 15.06407195121039","APOAPSIS":"548.007","MEAN_MOTION_DOT":"0.00001537","REF_FRAME":"TEME","ECCENTRICITY":"0.00011780","REV_AT_EPOCH":"12103","DECAY_DATE":null,"OBJECT_NAME":"STARLINK-1916","NORAD_CAT_ID":"46766"},{"REV_AT_EPOCH":"12104","DECAY_DATE":null,"OBJECT_NAME":"STARLINK-1917","NORAD_CAT_ID":"46767","REF_FRAME":"TEME","ECCENTRICITY":"0.00015080","MEAN_MOTION_DOT":"0.00001332","APOAPSIS":"548.259","TLE_LINE2":"2 46767  53.0527 161.4676 0001508  81.3494 278.7666 15.06399664121047","SITE":"AFETR","RCS_SIZE":"LARGE","PERIOD":"95.592","COUNTRY_CODE":"US","ARG_OF_PERICENTER":"81.3494","MEAN_MOTION_DDOT":"0.0000000000000","OBJECT_ID":"2020-074AE","MEAN_MOTION":"15.06399664","RA_OF_ASC_NODE":"161.4676","ELEMENT_SET_NO":"999","BSTAR":"0.00010829000000","MEAN_ELEMENT_THEORY":"SGP4","FILE":"3728081","INCLINATION":"53.0527","GP_ID":"221888348","EPHEMERIS_TYPE":"0","CLASSIFICATION_TYPE":"U","OBJECT_TYPE":"PAYLOAD","CENTER_NAME":"EARTH","LAUNCH_DATE":"2020-10-24","TLE_LINE1":"1 46767U 20074AE  22365.81155297  .00001332  00000-0  10829-3 0  9991","PERIAPSIS":"546.170","SEMIMAJOR_AXIS":"6925.350","EPOCH":"2022-12-31T19:28:38.176608","MEAN_ANOMALY":"278.7666","TIME_SYSTEM":"UTC"},{"EPHEMERIS_TYPE":"0","CLASSIFICATION_TYPE":"U","MEAN_ELEMENT_THEORY":"SGP4","FILE":"3728081","INCLINATION":"53.0535","GP_ID":"221887109","SEMIMAJOR_AXIS":"6925.333","EPOCH":"2022-12-31T16:22:51.901824","MEAN_ANOMALY":"300.9895","TIME_SYSTEM":"UTC","OBJECT_TYPE":"PAYLOAD","CENTER_NAME":"EARTH","LAUNCH_DATE":"2020-10-24","PERIAPSIS":"546.007","TLE_LINE1":"1 46768U 20074AF  22365.68254516  .00001098  00000-0  92564-4 0  9997","MEAN_MOTION_DOT":"0.00001098","TLE_LINE2":"2 46768  53.0535 162.0484 0001720  59.1263 300.9895 15.06404999121022","APOAPSIS":"548.389","SITE":"AFETR","REV_AT_EPOCH":"12102","DECAY_DATE":null,"OBJECT_NAME":"STARLINK-1918","NORAD_CAT_ID":"46768","REF_FRAME":"TEME","ECCENTRICITY":"0.00017200","MEAN_MOTION":"15.06404999","OBJECT_ID":"2020-074AF","RA_OF_ASC_NODE":"162.0484","ELEMENT_SET_NO":"999","BSTAR":"0.00009256400000","RCS_SIZE":"LARGE","PERIOD":"95.592","ARG_OF_PERICENTER":"59.1263","COUNTRY_CODE":"US","MEAN_MOTION_DDOT":"0.0000000000000"},{"ELEMENT_SET_NO":"999","RA_OF_ASC_NODE":"162.5774","MEAN_MOTION":"15.06396386","OBJECT_ID":"2020-074AH","BSTAR":"0.00014654000000","PERIOD":"95.592","RCS_SIZE":"LARGE","MEAN_MOTION_DDOT":"0.0000000000000","ARG_OF_PERICENTER":"63.0347","COUNTRY_CODE":"US","MEAN_MOTION_DOT":"0.00001902","TLE_LINE2":"2 46770  53.0532 162.5774 0001739  63.0347 297.0819 15.06396386121017","APOAPSIS":"548.429","SITE":"AFETR","NORAD_CAT_ID":"46770","OBJECT_NAME":"STARLINK-1932","DECAY_DATE":null,"REV_AT_EPOCH":"12101","ECCENTRICITY":"0.00017390","REF_FRAME":"TEME","MEAN_ANOMALY":"297.0819","EPOCH":"2022-12-31T16:33:34.894080","SEMIMAJOR_AXIS":"6925.360","TIME_SYSTEM":"UTC","OBJECT_TYPE":"PAYLOAD","TLE_LINE1":"1 46770U 20074AH  22365.68998720  .00001902  00000-0  14654-3 0  9999","PERIAPSIS":"546.020","LAUNCH_DATE":"2020-10-24","CENTER_NAME":"EARTH","EPHEMERIS_TYPE":"0","CLASSIFICATION_TYPE":"U","INCLINATION":"53.0532","FILE":"3728081","MEAN_ELEMENT_THEORY":"SGP4","GP_ID":"221887358"},{"CENTER_NAME":"EARTH","TLE_LINE1":"1 46772U 20074AK  22365.68897472  .00001715  00000-0  13402-3 0  9995","PERIAPSIS":"546.248","LAUNCH_DATE":"2020-10-24","OBJECT_TYPE":"PAYLOAD","TIME_SYSTEM":"UTC","SEMIMAJOR_AXIS":"6925.347","EPOCH":"2022-12-31T16:32:07.415808","MEAN_ANOMALY":"290.0509","GP_ID":"221888109","FILE":"3728081","MEAN_ELEMENT_THEORY":"SGP4","INCLINATION":"53.0530","CLASSIFICATION_TYPE":"U","EPHEMERIS_TYPE":"0","MEAN_MOTION_DDOT":"0.0000000000000","COUNTRY_CODE":"US","ARG_OF_PERICENTER":"70.0630","RCS_SIZE":"LARGE","PERIOD":"95.592","BSTAR":"0.00013402000000","MEAN_MOTION":"15.06400570","OBJECT_ID":"2020-074AK","ELEMENT_SET_NO":"999","RA_OF_ASC_NODE":"162.0194","REF_FRAME":"TEME","ECCENTRICITY":"0.00013910","DECAY_DATE":null,"REV_AT_EPOCH":"12102","NORAD_CAT_ID":"46772","OBJECT_NAME":"STARLINK-1936","TLE_LINE2":"2 46772  53.0530 162.0194 0001391  70.0630 290.0509 15.06400570121026","APOAPSIS":"548.175","SITE":"AFETR","MEAN_MOTION_DOT":"0.00001715"},{"OBJECT_TYPE":"PAYLOAD","CENTER_NAME":"EARTH","PERIAPSIS":"478.278","TLE_LINE1":"1 46774U 20074AM  22365.79967604  .00075596  00000-0  26753-2 0  9994","LAUNCH_DATE":"2020-10-24","SEMIMAJOR_AXIS":"6858.468","EPOCH":"2022-12-31T19:11:32.009856","MEAN_ANOMALY":"174.3731","TIME_SYSTEM":"UTC","FILE":"3728081","MEAN_ELEMENT_THEORY":"SGP4","INCLINATION":"53.0535","GP_ID":"221887849","EPHEMERIS_TYPE":"0","CLASSIFICATION_TYPE":"U","RCS_SIZE":"LARGE","PERIOD":"94.211","MEAN_MOTION_DDOT":"0.0000000000000","COUNTRY_CODE":"US","ARG_OF_PERICENTER":"185.7234","MEAN_MOTION":"15.28488154","OBJECT_ID":"2020-074AM","ELEMENT_SET_NO":"999","RA_OF_ASC_NODE":"134.4506","BSTAR":"0.00267530000000","DECAY_DATE":null,"REV_AT_EPOCH":"12143","NORAD_CAT_ID":"46774","OBJECT_NAME":"STARLINK-1939","REF_FRAME":"TEME","ECCENTRICITY":"0.00029960","MEAN_MOTION_DOT":"0.00075596","APOAPSIS":"482.388","TLE_LINE2":"2 46774  53.0535 134.4506 0002996 185.7234 174.3731 15.28488154121433","SITE":"AFETR"}];
